     3.02           N: GNSS NAV DATA    R: GLONASS          RINEX VERSION / TYPE
BINEX2RINEX  2.10   GSI, JAPAN          20240102 17:54:55UTCPGM / RUN BY / DATE
    18                                                      LEAP SECONDS
                                                            END OF HEADER
R16 2024 01 01 08 15 00 2.208445221186D-05 0.000000000000D+00 1.152000000000D+05
    -2.345394628906D+04 1.275802612305D+00 9.313225746155D-10 0.000000000000D+00
    -3.704107910156D+03 1.193246841431D-01 9.313225746155D-10-1.000000000000D+00
    -9.276800781250D+03-3.274926185608D+00 9.313225746155D-10 0.000000000000D+00
R09 2024 01 01 08 45 00 1.619579270482D-04 1.818989403546D-12 1.170000000000D+05
    -2.465781250000D+04-3.393268585205D-01 0.000000000000D+00 0.000000000000D+00
     5.793110351562D+03 1.596679687500D-01 9.313225746155D-10-2.000000000000D+00
     2.656266601562D+03-3.523052215576D+00-0.000000000000D+00 0.000000000000D+00
R19 2024 01 01 08 45 00-2.604238688946D-04-9.094947017729D-13 1.170000000000D+05
    -5.847219726562D+03 1.177995681763D+00 0.000000000000D+00 0.000000000000D+00
    -1.112630273438D+04-2.807354927063D+00-2.793967723846D-09 3.000000000000D+00
     2.220274462891D+04-1.097069740295D+00-9.313225746155D-10 0.000000000000D+00
R20 2024 01 01 08 45 00-1.060776412487D-04-0.000000000000D+00 1.170000000000D+05
    -1.379506933594D+04 1.202816009521D+00 0.000000000000D+00 0.000000000000D+00
     1.000920751953D+04-2.310641288757D+00 0.000000000000D+00 2.000000000000D+00
     1.897621044922D+04 2.098566055298D+00-1.862645149231D-09 0.000000000000D+00
R21 2024 01 01 08 45 00-6.546452641487D-05-2.728484105319D-12 1.170000000000D+05
    -1.070819482422D+04 3.476676940918D-01 0.000000000000D+00 0.000000000000D+00
     2.302342822266D+04-2.373914718628D-01 2.793967723846D-09 4.000000000000D+00
     2.573673339844D+03 3.577897071838D+00-9.313225746155D-10 0.000000000000D+00
R10 2024 01 01 08 45 00-1.033581793308D-04-4.547473508865D-12 1.170000000000D+05
    -1.645110498047D+04-2.187855720520D+00 0.000000000000D+00 0.000000000000D+00
     1.069242968750D+04 4.723491668701D-01 0.000000000000D+00-7.000000000000D+00
     1.633323974609D+04-2.502975463867D+00-1.862645149231D-09 0.000000000000D+00
R11 2024 01 01 08 45 00-2.247663214803D-04-2.728484105319D-12 1.170000000000D+05
     2.484192871094D+03-3.112381935120D+00-0.000000000000D+00 0.000000000000D+00
     1.068238916016D+04 5.014657974243D-01-0.000000000000D+00 0.000000000000D+00
     2.303518603516D+04 1.018028259277D-01-2.793967723846D-09 0.000000000000D+00
R09 2024 01 01 09 15 00 1.619607210159D-04 1.818989403546D-12 1.188000000000D+05
    -2.449005175781D+04 5.150156021118D-01 9.313225746155D-10 0.000000000000D+00
     5.913390625000D+03-6.421852111816D-02 9.313225746155D-10-2.000000000000D+00
    -3.706082519531D+03-3.500083923340D+00 0.000000000000D+00 0.000000000000D+00
R20 2024 01 01 09 15 00-1.060785725713D-04-0.000000000000D+00 1.188000000000D+05
    -1.182671386719D+04 9.490585327148D-01-0.000000000000D+00 0.000000000000D+00
     5.323333007812D+03-2.858368873596D+00-9.313225746155D-10 2.000000000000D+00
     2.197140722656D+04 1.207967758179D+00-1.862645149231D-09 0.000000000000D+00
R21 2024 01 01 09 15 00-6.546918302774D-05-2.728484105319D-12 1.188000000000D+05
    -9.891071289062D+03 5.171813964844D-01 0.000000000000D+00 0.000000000000D+00
     2.180781884766D+04-1.113882064819D+00 1.862645149231D-09 4.000000000000D+00
     8.831458007812D+03 3.330121040344D+00-1.862645149231D-09 0.000000000000D+00
R10 2024 01 01 09 15 00-1.033665612340D-04-4.547473508865D-12 1.188000000000D+05
    -1.973210644531D+04-1.434903144836D+00 0.000000000000D+00 0.000000000000D+00
     1.167104980469D+04 5.765686035156D-01 0.000000000000D+00-7.000000000000D+00
     1.125629833984D+04-3.101442337036D+00-9.313225746155D-10 0.000000000000D+00
R11 2024 01 01 09 15 00-2.247709780931D-04-2.728484105319D-12 1.188000000000D+05
    -2.983980957031D+03-2.914279937744D+00-0.000000000000D+00 0.000000000000D+00
     1.197620068359D+04 9.201173782349D-01 0.000000000000D+00 0.000000000000D+00
     2.232615820312D+04-8.845462799072D-01-1.862645149231D-09 0.000000000000D+00
R22 2024 01 01 09 15 00 1.010494306684D-04 1.818989403546D-12 1.193700000000D+05
    -3.107986816406D+03-1.709375381470D-01 0.000000000000D+00 0.000000000000D+00
     2.393338134766D+04 1.127552986145D+00 2.793967723846D-09-3.000000000000D+00
    -8.206660156250D+03 3.341275215149D+00-9.313225746155D-10 0.000000000000D+00
R09 2024 01 01 09 45 00 1.619635149837D-04 1.818989403546D-12 1.206000000000D+05
    -2.287474218750D+04 1.251740455627D+00 9.313225746155D-10 0.000000000000D+00
     5.437418457031D+03-4.942789077759D-01 9.313225746155D-10-2.000000000000D+00
    -9.780382324219D+03-3.205086708069D+00 9.313225746155D-10 0.000000000000D+00
R20 2024 01 01 09 45 00-1.060795038939D-04-0.000000000000D+00 1.206000000000D+05
    -1.047976513672D+04 5.274028778076D-01-0.000000000000D+00 0.000000000000D+00
    -1.226499023438D+02-3.143637657166D+00-1.862645149231D-09 2.000000000000D+00
     2.326926416016D+04 2.248811721802D-01-9.313225746155D-10 0.000000000000D+00
R21 2024 01 01 09 45 00-6.547383964062D-05-2.728484105319D-12 1.206000000000D+05
    -9.000463867188D+03 4.313898086548D-01 0.000000000000D+00 0.000000000000D+00
     1.904744677734D+04-1.933940887451D+00 9.313225746155D-10 4.000000000000D+00
     1.440748730469D+04 2.825305938721D+00-1.862645149231D-09 0.000000000000D+00
R10 2024 01 01 09 45 00-1.033749431372D-04-3.637978807092D-12 1.206000000000D+05
    -2.156789892578D+04-6.008558273315D-01 9.313225746155D-10 0.000000000000D+00
     1.262090283203D+04 4.369802474976D-01 0.000000000000D+00-7.000000000000D+00
     5.312072265625D+03-3.460488319397D+00-0.000000000000D+00 0.000000000000D+00
R11 2024 01 01 09 45 00-2.247756347060D-04-2.728484105319D-12 1.206000000000D+05
    -7.845495605469D+03-2.448001861572D+00-0.000000000000D+00 0.000000000000D+00
     1.390816064453D+04 1.195150375366D+00 0.000000000000D+00 0.000000000000D+00
     1.989175488281D+04-1.802842140198D+00-1.862645149231D-09 0.000000000000D+00
R22 2024 01 01 09 45 00 1.010522246361D-04 1.818989403546D-12 1.206000000000D+05
    -3.116520996094D+03 1.249628067017D-01 9.313225746155D-10 0.000000000000D+00
     2.523225244141D+04 2.954788208008D-01 2.793967723846D-09-3.000000000000D+00
    -1.952363281250D+03 3.562712669373D+00-9.313225746155D-10 0.000000000000D+00
R12 2024 01 01 09 45 00 3.511831164360D-05 9.094947017729D-13 1.214700000000D+05
     1.184048828125D+04-2.738065719604D+00-9.313225746155D-10 0.000000000000D+00
     6.172143554688D+03 1.159193992615D+00-0.000000000000D+00-1.000000000000D+00
     2.174783935547D+04 1.164256095886D+00-2.793967723846D-09 0.000000000000D+00
R20 2024 01 01 10 15 00-1.060804352164D-04-0.000000000000D+00 1.224000000000D+05
    -9.968240234375D+03 3.913784027100D-02-9.313225746155D-10 0.000000000000D+00
    -5.806639160156D+03-3.118622779846D+00-1.862645149231D-09 2.000000000000D+00
     2.277099707031D+04-7.748107910156D-01-9.313225746155D-10 0.000000000000D+00
R21 2024 01 01 10 15 00-6.547942757607D-05-2.728484105319D-12 1.224000000000D+05
    -8.471084472656D+03 1.252555847168D-01 0.000000000000D+00 0.000000000000D+00
     1.494737548828D+04-2.585267066956D+00 0.000000000000D+00 4.000000000000D+00
     1.887136328125D+04 2.102394104004D+00-1.862645149231D-09 0.000000000000D+00
R10 2024 01 01 10 15 00-1.033833250403D-04-3.637978807092D-12 1.224000000000D+05
    -2.191527832031D+04 1.999950408936D-01 9.313225746155D-10 0.000000000000D+00
     1.309821630859D+04 5.560111999512D-02 0.000000000000D+00-7.000000000000D+00
    -1.041119140625D+03-3.552984237671D+00 0.000000000000D+00 0.000000000000D+00
R12 2024 01 01 10 15 00 3.511924296618D-05 9.094947017729D-13 1.224000000000D+05
     6.916765136719D+03-2.684429168701D+00-0.000000000000D+00 0.000000000000D+00
     8.697292480469D+03 1.630034446716D+00 0.000000000000D+00-1.000000000000D+00
     2.297715380859D+04 1.928672790527D-01-2.793967723846D-09 0.000000000000D+00
R11 2024 01 01 10 15 00-2.247802913189D-04-2.728484105319D-12 1.224000000000D+05
    -1.168107714844D+04-1.789799690247D+00 0.000000000000D+00 0.000000000000D+00
     1.614531542969D+04 1.249070167542D+00 0.000000000000D+00 0.000000000000D+00
     1.591957714844D+04-2.582077980042D+00-1.862645149231D-09 0.000000000000D+00
R22 2024 01 01 10 15 00 1.010550186038D-04 1.818989403546D-12 1.224000000000D+05
    -2.800526855469D+03 1.850137710571D-01 9.313225746155D-10 0.000000000000D+00
     2.495850146484D+04-6.005678176880D-01 1.862645149231D-09-3.000000000000D+00
     4.453145996094D+03 3.508275985718D+00-9.313225746155D-10 0.000000000000D+00
R05 2024 01 01 10 15 00 1.247245818377D-04 9.094947017729D-13 1.230300000000D+05
    -1.685744726562D+04 1.243824958801D+00-0.000000000000D+00 0.000000000000D+00
    -1.555689599609D+04 9.111766815186D-01-2.793967723846D-09 1.000000000000D+00
     1.119921923828D+04 3.137967109680D+00 0.000000000000D+00 0.000000000000D+00
R20 2024 01 01 10 45 00-1.060841605067D-04-0.000000000000D+00 1.242000000000D+05
    -1.031163330078D+04-4.040346145630D-01-9.313225746155D-10 0.000000000000D+00
    -1.116194433594D+04-2.782291412354D+00-2.793967723846D-09 2.000000000000D+00
     2.051622949219D+04-1.714187622070D+00-9.313225746155D-10 0.000000000000D+00
R05 2024 01 01 10 45 00 1.247255131602D-04 9.094947017729D-13 1.242000000000D+05
    -1.391006884766D+04 2.017298698425D+00-9.313225746155D-10 0.000000000000D+00
    -1.382036328125D+04 9.746189117432D-01-2.793967723846D-09 1.000000000000D+00
     1.634269775391D+04 2.539979934692D+00-0.000000000000D+00 0.000000000000D+00
